#aV2021  7 14  0  0  0.00000000     288 DD+AD WGS84 FIT  NGA
## 2166 259200.00000000   300.00000000 59409 0.0000000000000
+   32     1  2  3  4  5  6  7  8  9 10 11 12 13 14 15 16 17
+         18 19 20 21 22 23 24 25 26 27 28 29 30 31 32  0  0
+          0  0  0  0  0  0  0  0  0  0  0  0  0  0  0  0  0
+          0  0  0  0  0  0  0  0  0  0  0  0  0  0  0  0  0
+          0  0  0  0  0  0  0  0  0  0  0  0  0  0  0  0  0
++         2  2  2  2  2  2  2  2  2  2  2  2  2  2  2  2  2
++         2  2  2  2  2  2  2  2  2  2  2  2  2  2  2  0  0
++         0  0  0  0  0  0  0  0  0  0  0  0  0  0  0  0  0
++         0  0  0  0  0  0  0  0  0  0  0  0  0  0  0  0  0
++         0  0  0  0  0  0  0  0  0  0  0  0  0  0  0  0  0
%c cc cc ccc ccc cccc cccc cccc cccc ccccc ccccc ccccc ccccc
%c cc cc ccc ccc cccc cccc cccc cccc ccccc ccccc ccccc ccccc
%f  0.0000000  0.000000000  0.00000000000  0.000000000000000
%f  0.0000000  0.000000000  0.00000000000  0.000000000000000
%i    0    0    0    0      0      0      0      0         0
%i    0    0    0    0      0      0      0      0         0
/*      NGA, ST. LOUIS,MO.                                  
/*   EPHEMERIS COMPUTED FROM 2 DAYS OF DATA                 
/*   EPOCHA v6 SMOOTHER                                     
/*   G2139 IERS2010 SATIGS SATAPC                           
*  2021  7 14 20  5  0.00000000
P  1   3888.637467  14313.025038 -22308.531327    628.252108                    
V  1 -26993.507092   5734.868312   -706.736386     -0.115615                    
P  2  19214.533565 -14542.846377  11890.502554   -619.571892                    
V  2  14068.875331  -2125.101073 -26757.675861     -0.026498                    
P  3   9822.549308  22037.702839 -11321.844695   -220.666570                    
V  3 -11137.806018  -9016.389504 -27325.705684     -0.115740                    
P  4   1076.163371  23421.638836  12429.167878   -202.345312                    
V  4  -7410.015101  14146.403316 -26091.415848     -0.007720                    
P  5   1112.045318 -18059.552819  19224.639357    -47.915536                    
V  5  18567.921840  16539.161025  14517.520944     -0.011641                    
P  6  25650.795304  -6845.470118   1583.783784     40.133118                    
V  6   2329.980630   1545.948852 -32141.144647      0.054902                    
P  7  18808.614938   8538.428749  17329.327517    202.372447                    
V  7 -20330.368140   5995.057991  19032.265591      0.089066                    
P  8  -5691.488176  25658.403999  -2423.054870    -28.811497                    
V  8  -3615.981715   2166.467116  31896.299247     -0.013834                    
P  9   9966.155970  15069.338342  19401.879616   -355.457367                    
V  9  -8234.154223  23429.054134 -13945.895587     -0.014676                    
P 10 -20869.803392  -7800.425215 -14546.625485   -162.039421                    
V 10 -11358.328383 -14764.402088  23753.131553     -0.076183                    
P 11  20967.692606 -11595.692564  11442.094973     15.604099                    
V 11  14760.317277     26.913763 -26983.266285      0.090940                    
P 12  -7669.778953 -22629.138072 -11993.828363    -68.628531                    
V 12  10692.693692  10357.180253 -26813.693386     -0.052916                    
P 13  13259.145658 -22593.624664   3749.355291    157.706725                    
V 13    370.688087   5614.664933  31534.264814      0.049853                    
P 14  20520.390319   7947.850677 -14910.036200     47.359094                    
V 14  10619.114350  15795.738560  23000.279011     -0.089749                    
P 15   2452.878033 -26111.825124  -3107.884658   -135.530663                    
V 15   4630.150438  -2770.249218  30928.725372      0.026585                    
P 16  -8192.984098  13102.150231  21292.284353   -357.111457                    
V 16 -17468.652535 -21452.620025   6847.409400     -0.061504                    
P 17  15197.337420    136.037247 -21356.602950    473.789148                    
V 17  -9458.412494  26438.138754  -6430.061392      0.058243                    
P 18 -20677.791969  -6553.981177  15366.251441    340.959747                    
V 18  18733.561296  -5662.058642  22697.082511     -0.026450                    
P 19  17221.931963  -8861.239642 -18393.166223     26.310265                    
V 19  -7860.856362  21420.095546 -18092.849966      0.049698                    
P 20  11268.647823 -10976.061370  21340.792923    520.192743                    
V 20  21027.562703  17399.608631  -2441.849896     -0.003852                    
P 21  -4707.891287  16037.848292 -19816.392596    131.256122                    
V 21 -26126.277142   6512.592505  11592.009638      0.023147                    
P 22   3641.281009  19969.361323 -17051.445611   -563.610297                    
V 22 -17882.423160 -12989.705788 -18629.087035      0.095242                    
P 23 -20494.291000 -16261.193136  -4784.596436     84.608856                    
V 23  -2375.349911  -6113.017533  31039.784414     -0.051927                    
P 24    837.878627 -16472.941509 -21008.214448    174.102196                    
V 24  25410.846247  -6737.981184   6773.204555      0.143692                    
P 25 -16937.720352 -20548.287711  -2286.218095    173.489741                    
V 25   3629.082766    125.095782 -31402.450739      0.066899                    
P 26 -16481.037861   4536.851919  20331.314064    110.567251                    
V 26 -17794.323737 -18916.828739  -9902.898130      0.045913                    
P 27 -12182.532742  22066.955487   7573.544023   -162.872755                    
V 27    512.230160 -10246.635681  30324.689133     -0.059190                    
P 28  18178.159272   2984.862546 -18515.904077    537.858256                    
V 28  13807.374796  20532.093912  16569.771706     -0.065376                    
P 29  -7167.456997 -16782.140214  19226.004760   -380.168069                    
V 29   9921.910710 -22406.351293 -15873.967512     -0.061059                    
P 30  25741.325215    135.798057   7097.124153   -450.768022                    
V 30  -8091.396215   4877.596879  29300.879895     -0.044046                    
P 31 -25524.906060   7491.113872   3278.315675   -128.630708                    
V 31  -4640.763036  -1688.772381 -30973.910638     -0.021268                    
P 32 -16186.901094   3358.149469 -20636.856787     14.060887                    
V 32   6718.341167 -25671.946638  -9563.554683     -0.020409                    
EOF
